     2.100          NAVIGATION                              RINEX VERSION / TYPE
fic2rin                                 09/03/2011 00:11:04 PGM / RUN BY / DATE
                                                            END OF HEADER
18 11  9  2  3 59 44.0  .155264511704D-03  .181898940355D-11  .000000000000D+00
     .100000000000D+02  .127062500000D+03  .521878881207D-08  .271671100238D+01
     .635534524918D-05  .127545886207D-01  .623799860477D-05  .515363241386D+04
     .446384000000D+06  .428408384323D-07 -.156355992937D+01 -.178813934326D-06
     .931750179181D+00  .242906250000D+03 -.221889451994D+01 -.833856162028D-08
     .234295473633D-09  .100000000000D+01  .165100000000D+04  .000000000000D+00
     .240000000000D+01  .000000000000D+00 -.107102096081D-07  .100000000000D+02
     .444486000000D+06  .400000000000D+01
18 11  9  2  5 59 44.0  .155278015882D-03  .181898940355D-11  .000000000000D+00
     .110000000000D+02  .111312500000D+03  .534343686131D-08 -.251627877462D+01
     .564754009247D-05  .127569639590D-01  .586360692978D-05  .515362801743D+04
     .453584000000D+06  .204890966415D-06 -.156362072532D+01 -.931322574615D-07
     .931751996125D+00  .250718750000D+03 -.221887670599D+01 -.839249243814D-08
     .348228790841D-09  .100000000000D+01  .165100000000D+04  .000000000000D+00
     .240000000000D+01  .000000000000D+00 -.107102096081D-07  .110000000000D+02
     .446406000000D+06  .400000000000D+01
 2 11  9  2  6  0  0.0  .354012008756D-03  .170530256582D-11  .000000000000D+00
     .460000000000D+02 -.712500000000D+01  .495984945478D-08  .968357932521D+00
    -.385567545891D-06  .104592184070D-01  .113118439913D-04  .515356586075D+04
     .453600000000D+06 -.596046447754D-07 -.264196309193D+01  .230967998505D-06
     .939238463303D+00  .152500000000D+03 -.293646320069D+01 -.816141138411D-08
    -.300369654459D-09  .100000000000D+01  .165100000000D+04  .000000000000D+00
     .240000000000D+01  .000000000000D+00 -.172294676304D-07  .460000000000D+02
     .446406000000D+06  .400000000000D+01
 3 11  9  2  6  0  0.0  .762809533626D-03  .500222085975D-11  .000000000000D+00
     .184000000000D+03 -.286875000000D+02  .567523639638D-08  .117361140284D+01
    -.158883631229D-05  .147465050686D-01  .550411641598D-05  .515366313934D+04
     .453600000000D+06 -.242143869400D-06  .248207067506D+01 -.260770320892D-07
     .929461127855D+00  .260625000000D+03  .112817017709D+01 -.887751264118D-08
    -.120004998690D-09  .100000000000D+01  .165100000000D+04  .000000000000D+00
     .340000000000D+01  .000000000000D+00 -.465661287308D-08  .184000000000D+03
     .446406000000D+06  .400000000000D+01
 4 11  9  2  6  0  0.0  .219151843339D-03  .111413100967D-10  .000000000000D+00
     .500000000000D+02 -.606250000000D+01  .485948813147D-08 -.205476625157D+01
    -.638887286186D-06  .974530039821D-02  .113844871521D-04  .515370223045D+04
     .453600000000D+06  .428408384323D-07 -.262473374249D+01 -.124797224998D-06
     .938313618197D+00  .142031250000D+03  .755433848749D+00 -.801104797802D-08
    -.124648049234D-09  .100000000000D+01  .165100000000D+04  .000000000000D+00
     .240000000000D+01  .000000000000D+00 -.651925802231D-08  .500000000000D+02
     .446406000000D+06  .400000000000D+01
 5 11  9  2  6  0  0.0 -.212464015931D-03 -.534328137292D-11  .000000000000D+00
     .490000000000D+02  .104781250000D+03  .490020411317D-08  .306168751512D+01
     .556185841560D-05  .237969122827D-02  .737793743610D-05  .515374608421D+04
     .453600000000D+06 -.577419996262D-07 -.157967575531D+01 -.409781932831D-07
     .952951165418D+00  .234312500000D+03  .143689343958D+00 -.821855662159D-08
     .306084178206D-09  .100000000000D+01  .165100000000D+04  .000000000000D+00
     .240000000000D+01  .000000000000D+00 -.102445483208D-07  .490000000000D+02
     .446406000000D+06  .400000000000D+01
 6 11  9  2  6  0  0.0 -.809552147985D-04  .954969436862D-11  .000000000000D+00
     .184000000000D+03 -.347187500000D+02  .535593738200D-08 -.311397315378D+01
    -.173598527908D-05  .667910987977D-02  .524520874023D-05  .515370102882D+04
     .453600000000D+06 -.931322574615D-08  .255651221535D+01  .856816768646D-07
     .936575801719D+00  .262062500000D+03 -.695549705329D+00 -.844785188694D-08
    -.732173355102D-10  .100000000000D+01  .165100000000D+04  .000000000000D+00
     .340000000000D+01  .000000000000D+00 -.465661287308D-08  .184000000000D+03
     .446406000000D+06  .400000000000D+01
 7 11  9  2  6  0  0.0  .248006545007D-04  .181898940355D-11  .000000000000D+00
     .650000000000D+02 -.876875000000D+02  .394159275459D-08 -.481225292965D+00
    -.472739338875D-05  .493784411810D-02  .998005270958D-05  .515364606094D+04
     .453600000000D+06  .160187482834D-06  .527007394716D+00 -.335276126862D-07
     .975250207726D+00  .196968750000D+03 -.309453811447D+01 -.786461330700D-08
    -.276797244002D-09  .100000000000D+01  .165100000000D+04  .000000000000D+00
     .240000000000D+01  .000000000000D+00 -.107102096081D-07  .650000000000D+02
     .446406000000D+06  .400000000000D+01
 8 11  9  2  6  0  0.0  .904267653823D-05  .113686837722D-12  .000000000000D+00
     .560000000000D+02 -.715625000000D+02  .343907182257D-08 -.966915815673D+00
    -.388547778130D-05  .120365940966D-01  .104028731585D-04  .515375585556D+04
     .453600000000D+06  .171363353729D-06  .604551421445D+00 -.275671482086D-06
     .997049123692D+00  .198625000000D+03 -.304463277372D+01 -.752995651006D-08
    -.114290474943D-09  .100000000000D+01  .165100000000D+04  .000000000000D+00
     .340000000000D+01  .000000000000D+00 -.419095158577D-08  .560000000000D+02
     .446406000000D+06  .400000000000D+01
 9 11  9  2  6  0  0.0  .103005208075D-03  .238742359215D-11  .000000000000D+00
     .550000000000D+02 -.557187500000D+02  .385766068705D-08 -.119349752123D+01
    -.284984707832D-05  .173122021370D-01  .987946987152D-05  .515366807556D+04
     .453600000000D+06 -.290572643280D-06  .499304106272D+00  .283122062683D-06
     .984129131534D+00  .202031250000D+03  .159766592310D+01 -.797140346952D-08
    -.219652006531D-09  .100000000000D+01  .165100000000D+04  .000000000000D+00
     .240000000000D+01  .000000000000D+00 -.558793544769D-08  .550000000000D+02
     .446406000000D+06  .400000000000D+01
10 11  9  2  6  0  0.0 -.118212774396D-04 -.113686837722D-11  .000000000000D+00
     .680000000000D+02  .109531250000D+03  .494520598768D-08 -.299657042156D+01
     .549480319023D-05  .103718891041D-01  .740960240364D-05  .515363234329D+04
     .453600000000D+06 -.428408384323D-07 -.155654265220D+01 -.225380063057D-06
     .947873621072D+00  .230843750000D+03  .704266201343D+00 -.818605526777D-08
     .306441335940D-09  .100000000000D+01  .165100000000D+04  .000000000000D+00
     .340000000000D+01  .000000000000D+00 -.232830643654D-08  .680000000000D+02
     .446406000000D+06  .400000000000D+01
11 11  9  2  6  0  0.0 -.182244461030D-03 -.329691829393D-11  .000000000000D+00
     .360000000000D+02 -.261250000000D+02  .630311969309D-08 -.319430889487D+00
    -.128149986267D-05  .121993076755D-01  .991672277451D-05  .515366765594D+04
     .453600000000D+06  .372529029846D-07 -.288418290753D+01  .147148966789D-06
     .888381691840D+00  .152562500000D+03  .961885653781D+00 -.902359015446D-08
    -.338942689752D-09  .100000000000D+01  .165100000000D+04  .000000000000D+00
     .240000000000D+01  .000000000000D+00 -.116415321827D-07  .360000000000D+02
     .446406000000D+06  .400000000000D+01
12 11  9  2  6  0  0.0  .197263434529D-04  .238742359215D-11  .000000000000D+00
     .700000000000D+02  .187187500000D+02  .418624580251D-08 -.694527409397D+00
     .942498445511D-06  .358287349809D-02  .833347439766D-05  .515367525101D+04
     .453600000000D+06  .521540641785D-07  .158228180489D+01 -.124797224998D-06
     .976113762416D+00  .229937500000D+03 -.768528023248D-01 -.793711632704D-08
     .387516141603D-09  .100000000000D+01  .165100000000D+04  .000000000000D+00
     .240000000000D+01  .000000000000D+00 -.121071934700D-07  .700000000000D+02
     .446406000000D+06  .400000000000D+01
13 11  9  2  6  0  0.0  .253505539149D-03 -.181898940355D-11  .000000000000D+00
     .111000000000D+03 -.289687500000D+02  .424160525131D-08  .197490523324D+01
    -.160560011864D-05  .465241319034D-02  .289268791676D-05  .515378272247D+04
     .453600000000D+06  .000000000000D+00 -.446069898362D+00 -.521540641785D-07
     .988760598511D+00  .332781250000D+03  .194605720116D+01 -.817284043161D-08
    -.365729519817D-09  .100000000000D+01  .165100000000D+04  .000000000000D+00
     .340000000000D+01  .000000000000D+00 -.111758708954D-07  .111000000000D+03
     .446406000000D+06  .400000000000D+01
14 11  9  2  6  0  0.0  .170154497027D-03  .193267624127D-11  .000000000000D+00
     .270000000000D+02 -.404062500000D+02  .435482425305D-08  .201307877999D+01
    -.223517417908D-05  .618502439465D-02  .357814133167D-05  .515370520020D+04
     .453600000000D+06 -.109896063805D-06 -.470916431102D+00 -.193715095520D-06
     .981721917390D+00  .322656250000D+03 -.210041725099D+01 -.817926927082D-08
    -.307155651409D-09  .100000000000D+01  .165100000000D+04  .000000000000D+00
     .240000000000D+01  .000000000000D+00 -.884756445885D-08  .270000000000D+02
     .446406000000D+06  .400000000000D+01
15 11  9  2  6  0  0.0 -.108046922833D-03  .159161572810D-11  .000000000000D+00
     .460000000000D+02 -.221875000000D+02  .521486007700D-08  .167579763181D+01
    -.923871994019D-06  .359296926763D-02  .277161598206D-05  .515367420197D+04
     .453600000000D+06  .158324837685D-06 -.549894004904D+00  .651925802231D-07
     .948730836939D+00  .317375000000D+03 -.745066094193D-01 -.870036240502D-08
    -.285011871888D-09  .100000000000D+01  .165100000000D+04  .000000000000D+00
     .240000000000D+01  .000000000000D+00 -.102445483208D-07  .460000000000D+02
     .446406000000D+06  .400000000000D+01
